COSMOS 2251 DEB         
1 33836U 93036CD  17345.68483501  .00000554  00000-0  13668-3 0  9990
2 33836  74.0077  83.3652 0038266 289.7376 187.8888 14.54184820467006
